CCSDS_OMM_VERS = 2.0
CREATION_DATE  = 
ORIGINATOR     = 

OBJECT_NAME    = 2025-313S
OBJECT_ID      = 2025-313S
CENTER_NAME    = EARTH
REF_FRAME      = TEME
TIME_SYSTEM    = UTC
MEAN_ELEMENT_THEORY = SGP/SGP4

EPOCH          = 2026-01-17T22:53:27.271968
MEAN_MOTION    = 15.20076259
ECCENTRICITY   = .00158657
INCLINATION    = 97.4199
RA_OF_ASC_NODE = 95.0738
ARG_OF_PERICENTER = 171.4099
MEAN_ANOMALY   = 188.7411

EPHEMERIS_TYPE = 0
CLASSIFICATION_TYPE = U
NORAD_CAT_ID   = 67264
ELEMENT_SET_NO = 999
REV_AT_EPOCH   = 310
BSTAR          = .33492519E-3
MEAN_MOTION_DOT = .7186E-4
MEAN_MOTION_DDOT = 0

CCSDS_OMM_VERS = 2.0
CREATION_DATE  = 
ORIGINATOR     = 

OBJECT_NAME    = SITRO-TD-4
OBJECT_ID      = 2025-313T
CENTER_NAME    = EARTH
REF_FRAME      = TEME
TIME_SYSTEM    = UTC
MEAN_ELEMENT_THEORY = SGP/SGP4

EPOCH          = 2026-01-17T22:51:27.228672
MEAN_MOTION    = 15.20236981
ECCENTRICITY   = .0015804
INCLINATION    = 97.4108
RA_OF_ASC_NODE = 95.0688
ARG_OF_PERICENTER = 167.2302
MEAN_ANOMALY   = 192.9337

EPHEMERIS_TYPE = 0
CLASSIFICATION_TYPE = U
NORAD_CAT_ID   = 67265
ELEMENT_SET_NO = 999
REV_AT_EPOCH   = 310
BSTAR          = .46028887E-3
MEAN_MOTION_DOT = .9952E-4
MEAN_MOTION_DDOT = 0

CCSDS_OMM_VERS = 2.0
CREATION_DATE  = 
ORIGINATOR     = 

OBJECT_NAME    = SITRO-AIS-65
OBJECT_ID      = 2025-313U
CENTER_NAME    = EARTH
REF_FRAME      = TEME
TIME_SYSTEM    = UTC
MEAN_ELEMENT_THEORY = SGP/SGP4

EPOCH          = 2026-01-17T22:51:20.878272
MEAN_MOTION    = 15.20244789
ECCENTRICITY   = .00157263
INCLINATION    = 97.4136
RA_OF_ASC_NODE = 95.0755
ARG_OF_PERICENTER = 165.9429
MEAN_ANOMALY   = 194.2248

EPHEMERIS_TYPE = 0
CLASSIFICATION_TYPE = U
NORAD_CAT_ID   = 67266
ELEMENT_SET_NO = 999
REV_AT_EPOCH   = 310
BSTAR          = .45451928E-3
MEAN_MOTION_DOT = .9828E-4
MEAN_MOTION_DDOT = 0

CCSDS_OMM_VERS = 2.0
CREATION_DATE  = 
ORIGINATOR     = 

OBJECT_NAME    = 2025-313V
OBJECT_ID      = 2025-313V
CENTER_NAME    = EARTH
REF_FRAME      = TEME
TIME_SYSTEM    = UTC
MEAN_ELEMENT_THEORY = SGP/SGP4

EPOCH          = 2026-01-17T22:50:33.739296
MEAN_MOTION    = 15.20315121
ECCENTRICITY   = .00149282
INCLINATION    = 97.4119
RA_OF_ASC_NODE = 95.0631
ARG_OF_PERICENTER = 171.4890
MEAN_ANOMALY   = 188.6601

EPHEMERIS_TYPE = 0
CLASSIFICATION_TYPE = U
NORAD_CAT_ID   = 67267
ELEMENT_SET_NO = 999
REV_AT_EPOCH   = 310
BSTAR          = .55001737E-3
MEAN_MOTION_DOT = .11931E-3
MEAN_MOTION_DDOT = 0

CCSDS_OMM_VERS = 2.0
CREATION_DATE  = 
ORIGINATOR     = 

OBJECT_NAME    = ZORKY-2M 7
OBJECT_ID      = 2025-313W
CENTER_NAME    = EARTH
REF_FRAME      = TEME
TIME_SYSTEM    = UTC
MEAN_ELEMENT_THEORY = SGP/SGP4

EPOCH          = 2026-01-17T22:51:49.484448
MEAN_MOTION    = 15.20195874
ECCENTRICITY   = .00158884
INCLINATION    = 97.4119
RA_OF_ASC_NODE = 95.0603
ARG_OF_PERICENTER = 166.6991
MEAN_ANOMALY   = 193.4666

EPHEMERIS_TYPE = 0
CLASSIFICATION_TYPE = U
NORAD_CAT_ID   = 67268
ELEMENT_SET_NO = 999
REV_AT_EPOCH   = 310
BSTAR          = .44146213E-3
MEAN_MOTION_DOT = .953E-4
MEAN_MOTION_DDOT = 0

CCSDS_OMM_VERS = 2.0
CREATION_DATE  = 
ORIGINATOR     = 

OBJECT_NAME    = 2025-313X
OBJECT_ID      = 2025-313X
CENTER_NAME    = EARTH
REF_FRAME      = TEME
TIME_SYSTEM    = UTC
MEAN_ELEMENT_THEORY = SGP/SGP4

EPOCH          = 2026-01-17T22:49:49.409184
MEAN_MOTION    = 15.20401706
ECCENTRICITY   = .00156709
INCLINATION    = 97.4146
RA_OF_ASC_NODE = 95.0788
ARG_OF_PERICENTER = 165.3238
MEAN_ANOMALY   = 194.8456

EPHEMERIS_TYPE = 0
CLASSIFICATION_TYPE = U
NORAD_CAT_ID   = 67269
ELEMENT_SET_NO = 999
REV_AT_EPOCH   = 310
BSTAR          = .63931236E-3
MEAN_MOTION_DOT = .13923E-3
MEAN_MOTION_DDOT = 0

CCSDS_OMM_VERS = 2.0
CREATION_DATE  = 
ORIGINATOR     = 

OBJECT_NAME    = SITRO-TD-3
OBJECT_ID      = 2025-313Y
CENTER_NAME    = EARTH
REF_FRAME      = TEME
TIME_SYSTEM    = UTC
MEAN_ELEMENT_THEORY = SGP/SGP4

EPOCH          = 2026-01-17T22:51:54.442944
MEAN_MOTION    = 15.20221509
ECCENTRICITY   = .0015831
INCLINATION    = 97.4118
RA_OF_ASC_NODE = 95.0707
ARG_OF_PERICENTER = 166.8948
MEAN_ANOMALY   = 193.2701

EPHEMERIS_TYPE = 0
CLASSIFICATION_TYPE = U
NORAD_CAT_ID   = 67270
ELEMENT_SET_NO = 999
REV_AT_EPOCH   = 310
BSTAR          = .49910506E-3
MEAN_MOTION_DOT = .10793E-3
MEAN_MOTION_DDOT = 0

CCSDS_OMM_VERS = 2.0
CREATION_DATE  = 
ORIGINATOR     = 

OBJECT_NAME    = 2025-313Z
OBJECT_ID      = 2025-313Z
CENTER_NAME    = EARTH
REF_FRAME      = TEME
TIME_SYSTEM    = UTC
MEAN_ELEMENT_THEORY = SGP/SGP4

EPOCH          = 2026-01-17T22:53:25.183680
MEAN_MOTION    = 15.20038223
ECCENTRICITY   = .00159141
INCLINATION    = 97.4113
RA_OF_ASC_NODE = 95.0597
ARG_OF_PERICENTER = 162.8351
MEAN_ANOMALY   = 197.3425

EPHEMERIS_TYPE = 0
CLASSIFICATION_TYPE = U
NORAD_CAT_ID   = 67271
ELEMENT_SET_NO = 999
REV_AT_EPOCH   = 310
BSTAR          = .24944958E-3
MEAN_MOTION_DOT = .5328E-4
MEAN_MOTION_DDOT = 0

CCSDS_OMM_VERS = 2.0
CREATION_DATE  = 
ORIGINATOR     = 

OBJECT_NAME    = 2025-313AA
OBJECT_ID      = 2025-313AA
CENTER_NAME    = EARTH
REF_FRAME      = TEME
TIME_SYSTEM    = UTC
MEAN_ELEMENT_THEORY = SGP/SGP4

EPOCH          = 2026-01-17T22:49:08.167872
MEAN_MOTION    = 15.20411559
ECCENTRICITY   = .00155561
INCLINATION    = 97.4118
RA_OF_ASC_NODE = 95.0621
ARG_OF_PERICENTER = 167.2613
MEAN_ANOMALY   = 192.9018

EPHEMERIS_TYPE = 0
CLASSIFICATION_TYPE = U
NORAD_CAT_ID   = 67272
ELEMENT_SET_NO = 999
REV_AT_EPOCH   = 310
BSTAR          = .56012458E-3
MEAN_MOTION_DOT = .1219E-3
MEAN_MOTION_DDOT = 0

CCSDS_OMM_VERS = 2.0
CREATION_DATE  = 
ORIGINATOR     = 

OBJECT_NAME    = 2025-313AB
OBJECT_ID      = 2025-313AB
CENTER_NAME    = EARTH
REF_FRAME      = TEME
TIME_SYSTEM    = UTC
MEAN_ELEMENT_THEORY = SGP/SGP4

EPOCH          = 2026-01-17T22:53:16.866816
MEAN_MOTION    = 15.20015959
ECCENTRICITY   = .00148334
INCLINATION    = 97.4131
RA_OF_ASC_NODE = 95.0634
ARG_OF_PERICENTER = 171.0884
MEAN_ANOMALY   = 189.0617

EPHEMERIS_TYPE = 0
CLASSIFICATION_TYPE = U
NORAD_CAT_ID   = 67273
ELEMENT_SET_NO = 999
REV_AT_EPOCH   = 310
BSTAR          = .17395882E-3
MEAN_MOTION_DOT = .369E-4
MEAN_MOTION_DDOT = 0

CCSDS_OMM_VERS = 2.0
CREATION_DATE  = 
ORIGINATOR     = 

OBJECT_NAME    = 2025-313AC
OBJECT_ID      = 2025-313AC
CENTER_NAME    = EARTH
REF_FRAME      = TEME
TIME_SYSTEM    = UTC
MEAN_ELEMENT_THEORY = SGP/SGP4

EPOCH          = 2026-01-17T22:51:11.838240
MEAN_MOTION    = 15.20199146
ECCENTRICITY   = .00155684
INCLINATION    = 97.4106
RA_OF_ASC_NODE = 95.0676
ARG_OF_PERICENTER = 166.2951
MEAN_ANOMALY   = 193.8710

EPHEMERIS_TYPE = 0
CLASSIFICATION_TYPE = U
NORAD_CAT_ID   = 67274
ELEMENT_SET_NO = 999
REV_AT_EPOCH   = 310
BSTAR          = .35455571E-3
MEAN_MOTION_DOT = .7639E-4
MEAN_MOTION_DDOT = 0

CCSDS_OMM_VERS = 2.0
CREATION_DATE  = 
ORIGINATOR     = 

OBJECT_NAME    = 2025-313AD
OBJECT_ID      = 2025-313AD
CENTER_NAME    = EARTH
REF_FRAME      = TEME
TIME_SYSTEM    = UTC
MEAN_ELEMENT_THEORY = SGP/SGP4

EPOCH          = 2026-01-17T22:50:07.953216
MEAN_MOTION    = 15.20261611
ECCENTRICITY   = .00147531
INCLINATION    = 97.4081
RA_OF_ASC_NODE = 95.0622
ARG_OF_PERICENTER = 169.0324
MEAN_ANOMALY   = 191.1236

EPHEMERIS_TYPE = 0
CLASSIFICATION_TYPE = U
NORAD_CAT_ID   = 67275
ELEMENT_SET_NO = 999
REV_AT_EPOCH   = 310
BSTAR          = .36662861E-3
MEAN_MOTION_DOT = .7913E-4
MEAN_MOTION_DDOT = 0

