2025-313S               
1 67264U 25313S   26017.95378787  .00007186  00000+0  33493-3 0  9995
2 67264  97.4199  95.0738 0015865 171.4099 188.7411 15.20076259  3105
SITRO-TD-4              
1 67265U 25313T   26017.95239848  .00009952  00000+0  46029-3 0  9992
2 67265  97.4108  95.0688 0015804 167.2302 192.9337 15.20236981  3107
SITRO-AIS-65            
1 67266U 25313U   26017.95232498  .00009828  00000+0  45452-3 0  9998
2 67266  97.4136  95.0755 0015726 165.9429 194.2248 15.20244789  3103
2025-313V               
1 67267U 25313V   26017.95177939  .00011931  00000+0  55002-3 0  9997
2 67267  97.4119  95.0631 0014928 171.4890 188.6601 15.20315121  3104
ZORKY-2M 7              
1 67268U 25313W   26017.95265607  .00009530  00000+0  44146-3 0  9997
2 67268  97.4119  95.0603 0015888 166.6991 193.4666 15.20195874  3104
2025-313X               
1 67269U 25313X   26017.95126631  .00013923  00000+0  63931-3 0  9995
2 67269  97.4146  95.0788 0015670 165.3238 194.8456 15.20401706  3104
SITRO-TD-3              
1 67270U 25313Y   26017.95271346  .00010793  00000+0  49911-3 0  9995
2 67270  97.4118  95.0707 0015831 166.8948 193.2701 15.20221509  3106
2025-313Z               
1 67271U 25313Z   26017.95376370  .00005328  00000+0  24945-3 0  9997
2 67271  97.4113  95.0597 0015914 162.8351 197.3425 15.20038223  3102
2025-313AA              
1 67272U 25313AA  26017.95078898  .00012190  00000+0  56012-3 0  9997
2 67272  97.4118  95.0621 0015556 167.2613 192.9018 15.20411559  3104
2025-313AB              
1 67273U 25313AB  26017.95366744  .00003690  00000+0  17396-3 0  9995
2 67273  97.4131  95.0634 0014833 171.0884 189.0617 15.20015959  3100
2025-313AC              
1 67274U 25313AC  26017.95222035  .00007639  00000+0  35456-3 0  9994
2 67274  97.4106  95.0676 0015568 166.2951 193.8710 15.20199146  3104
2025-313AD              
1 67275U 25313AD  26017.95148094  .00007913  00000+0  36663-3 0  9993
2 67275  97.4081  95.0622 0014753 169.0324 191.1236 15.20261611  3109
